CCSDS_OMM_VERS = 2.0
CREATION_DATE  = 
ORIGINATOR     = 

OBJECT_NAME    = ATLAS CENTAUR R/B
OBJECT_ID      = 1972-065B
CENTER_NAME    = EARTH
REF_FRAME      = TEME
TIME_SYSTEM    = UTC
MEAN_ELEMENT_THEORY = SGP/SGP4

EPOCH          = 2026-03-24T16:37:59.830176
MEAN_MOTION    = 14.77727215
ECCENTRICITY   = .00330481
INCLINATION    = 35.0006
RA_OF_ASC_NODE = 217.8242
ARG_OF_PERICENTER = 137.1834
MEAN_ANOMALY   = 223.1448

EPHEMERIS_TYPE = 0
CLASSIFICATION_TYPE = U
NORAD_CAT_ID   = 6155
ELEMENT_SET_NO = 999
REV_AT_EPOCH   = 84348
BSTAR          = .17734016E-3
MEAN_MOTION_DOT = .128E-4
MEAN_MOTION_DDOT = 0

CCSDS_OMM_VERS = 2.0
CREATION_DATE  = 
ORIGINATOR     = 

OBJECT_NAME    = SL-8 R/B
OBJECT_ID      = 1975-112B
CENTER_NAME    = EARTH
REF_FRAME      = TEME
TIME_SYSTEM    = UTC
MEAN_ELEMENT_THEORY = SGP/SGP4

EPOCH          = 2026-03-24T21:00:54.897696
MEAN_MOTION    = 14.38212413
ECCENTRICITY   = .00144953
INCLINATION    = 74.0635
RA_OF_ASC_NODE = 350.9794
ARG_OF_PERICENTER = 77.8964
MEAN_ANOMALY   = 282.3813

EPHEMERIS_TYPE = 0
CLASSIFICATION_TYPE = U
NORAD_CAT_ID   = 8459
ELEMENT_SET_NO = 999
REV_AT_EPOCH   = 63405
BSTAR          = .8891729E-4
MEAN_MOTION_DOT = .244E-5
MEAN_MOTION_DDOT = 0

CCSDS_OMM_VERS = 2.0
CREATION_DATE  = 
ORIGINATOR     = 

OBJECT_NAME    = SL-3 R/B
OBJECT_ID      = 1977-057B
CENTER_NAME    = EARTH
REF_FRAME      = TEME
TIME_SYSTEM    = UTC
MEAN_ELEMENT_THEORY = SGP/SGP4

EPOCH          = 2026-03-24T22:22:25.859136
MEAN_MOTION    = 15.45918773
ECCENTRICITY   = .00065681
INCLINATION    = 97.5798
RA_OF_ASC_NODE = 256.5305
ARG_OF_PERICENTER = 220.2471
MEAN_ANOMALY   = 139.8292

EPHEMERIS_TYPE = 0
CLASSIFICATION_TYPE = U
NORAD_CAT_ID   = 10114
ELEMENT_SET_NO = 999
REV_AT_EPOCH   = 67068
BSTAR          = .25025254E-3
MEAN_MOTION_DOT = .12091E-3
MEAN_MOTION_DDOT = 0

CCSDS_OMM_VERS = 2.0
CREATION_DATE  = 
ORIGINATOR     = 

OBJECT_NAME    = SEASAT 1
OBJECT_ID      = 1978-064A
CENTER_NAME    = EARTH
REF_FRAME      = TEME
TIME_SYSTEM    = UTC
MEAN_ELEMENT_THEORY = SGP/SGP4

EPOCH          = 2026-03-24T22:06:53.689536
MEAN_MOTION    = 14.46172268
ECCENTRICITY   = .00025583
INCLINATION    = 108.0082
RA_OF_ASC_NODE = 157.4602
ARG_OF_PERICENTER = 278.6224
MEAN_ANOMALY   = 81.4632

EPHEMERIS_TYPE = 0
CLASSIFICATION_TYPE = U
NORAD_CAT_ID   = 10967
ELEMENT_SET_NO = 999
REV_AT_EPOCH   = 50871
BSTAR          = .10899643E-3
MEAN_MOTION_DOT = .253E-5
MEAN_MOTION_DDOT = 0

CCSDS_OMM_VERS = 2.0
CREATION_DATE  = 
ORIGINATOR     = 

OBJECT_NAME    = SL-14 R/B
OBJECT_ID      = 1979-011B
CENTER_NAME    = EARTH
REF_FRAME      = TEME
TIME_SYSTEM    = UTC
MEAN_ELEMENT_THEORY = SGP/SGP4

EPOCH          = 2026-03-24T22:32:43.312416
MEAN_MOTION    = 14.91926585
ECCENTRICITY   = .00163194
INCLINATION    = 82.5206
RA_OF_ASC_NODE = 82.0955
ARG_OF_PERICENTER = 12.4610
MEAN_ANOMALY   = 347.7009

EPHEMERIS_TYPE = 0
CLASSIFICATION_TYPE = U
NORAD_CAT_ID   = 11267
ELEMENT_SET_NO = 999
REV_AT_EPOCH   = 53105
BSTAR          = .58691316E-4
MEAN_MOTION_DOT = .62E-5
MEAN_MOTION_DDOT = 0

CCSDS_OMM_VERS = 2.0
CREATION_DATE  = 
ORIGINATOR     = 

OBJECT_NAME    = SL-8 R/B
OBJECT_ID      = 1979-089B
CENTER_NAME    = EARTH
REF_FRAME      = TEME
TIME_SYSTEM    = UTC
MEAN_ELEMENT_THEORY = SGP/SGP4

EPOCH          = 2026-03-24T22:26:38.807232
MEAN_MOTION    = 14.42358915
ECCENTRICITY   = .00168515
INCLINATION    = 74.0678
RA_OF_ASC_NODE = 62.8191
ARG_OF_PERICENTER = 233.6311
MEAN_ANOMALY   = 126.3291

EPHEMERIS_TYPE = 0
CLASSIFICATION_TYPE = U
NORAD_CAT_ID   = 11574
ELEMENT_SET_NO = 999
REV_AT_EPOCH   = 43830
BSTAR          = .72260091E-4
MEAN_MOTION_DOT = .213E-5
MEAN_MOTION_DDOT = 0

CCSDS_OMM_VERS = 2.0
CREATION_DATE  = 
ORIGINATOR     = 

OBJECT_NAME    = SL-14 R/B
OBJECT_ID      = 1980-005B
CENTER_NAME    = EARTH
REF_FRAME      = TEME
TIME_SYSTEM    = UTC
MEAN_ELEMENT_THEORY = SGP/SGP4

EPOCH          = 2026-03-24T19:52:39.329472
MEAN_MOTION    = 14.90946475
ECCENTRICITY   = .00171663
INCLINATION    = 82.5117
RA_OF_ASC_NODE = 292.8736
ARG_OF_PERICENTER = 111.0324
MEAN_ANOMALY   = 249.2734

EPHEMERIS_TYPE = 0
CLASSIFICATION_TYPE = U
NORAD_CAT_ID   = 11672
ELEMENT_SET_NO = 999
REV_AT_EPOCH   = 47874
BSTAR          = .52610094E-4
MEAN_MOTION_DOT = .546E-5
MEAN_MOTION_DDOT = 0

CCSDS_OMM_VERS = 2.0
CREATION_DATE  = 
ORIGINATOR     = 

OBJECT_NAME    = SL-8 R/B
OBJECT_ID      = 1981-003B
CENTER_NAME    = EARTH
REF_FRAME      = TEME
TIME_SYSTEM    = UTC
MEAN_ELEMENT_THEORY = SGP/SGP4

EPOCH          = 2026-03-24T23:09:15.170688
MEAN_MOTION    = 15.11623563
ECCENTRICITY   = .02612212
INCLINATION    = 82.9353
RA_OF_ASC_NODE = 275.8920
ARG_OF_PERICENTER = 125.4395
MEAN_ANOMALY   = 237.1532

EPHEMERIS_TYPE = 0
CLASSIFICATION_TYPE = U
NORAD_CAT_ID   = 12139
ELEMENT_SET_NO = 999
REV_AT_EPOCH   = 31698
BSTAR          = .48819797E-3
MEAN_MOTION_DOT = .19405E-3
MEAN_MOTION_DDOT = 0

CCSDS_OMM_VERS = 2.0
CREATION_DATE  = 
ORIGINATOR     = 

OBJECT_NAME    = SL-3 R/B
OBJECT_ID      = 1981-046B
CENTER_NAME    = EARTH
REF_FRAME      = TEME
TIME_SYSTEM    = UTC
MEAN_ELEMENT_THEORY = SGP/SGP4

EPOCH          = 2026-03-24T23:12:49.182624
MEAN_MOTION    = 15.42361280
ECCENTRICITY   = .00183956
INCLINATION    = 81.2287
RA_OF_ASC_NODE = 271.3900
ARG_OF_PERICENTER = 328.4732
MEAN_ANOMALY   = 31.5407

EPHEMERIS_TYPE = 0
CLASSIFICATION_TYPE = U
NORAD_CAT_ID   = 12465
ELEMENT_SET_NO = 999
REV_AT_EPOCH   = 44078
BSTAR          = .23413817E-3
MEAN_MOTION_DOT = .10192E-3
MEAN_MOTION_DDOT = 0

CCSDS_OMM_VERS = 2.0
CREATION_DATE  = 
ORIGINATOR     = 

OBJECT_NAME    = SL-3 R/B
OBJECT_ID      = 1981-103B
CENTER_NAME    = EARTH
REF_FRAME      = TEME
TIME_SYSTEM    = UTC
MEAN_ELEMENT_THEORY = SGP/SGP4

EPOCH          = 2026-03-24T21:33:57.081312
MEAN_MOTION    = 15.21554812
ECCENTRICITY   = .00126648
INCLINATION    = 81.1607
RA_OF_ASC_NODE = 195.5914
ARG_OF_PERICENTER = 232.0394
MEAN_ANOMALY   = 127.9694

EPHEMERIS_TYPE = 0
CLASSIFICATION_TYPE = U
NORAD_CAT_ID   = 12904
ELEMENT_SET_NO = 999
REV_AT_EPOCH   = 97554
BSTAR          = .21464863E-3
MEAN_MOTION_DOT = .4871E-4
MEAN_MOTION_DDOT = 0

CCSDS_OMM_VERS = 2.0
CREATION_DATE  = 
ORIGINATOR     = 

OBJECT_NAME    = SL-3 R/B
OBJECT_ID      = 1982-013B
CENTER_NAME    = EARTH
REF_FRAME      = TEME
TIME_SYSTEM    = UTC
MEAN_ELEMENT_THEORY = SGP/SGP4

EPOCH          = 2026-03-24T21:36:42.464736
MEAN_MOTION    = 15.22153002
ECCENTRICITY   = .0023421
INCLINATION    = 81.1741
RA_OF_ASC_NODE = 142.9426
ARG_OF_PERICENTER = 127.3132
MEAN_ANOMALY   = 233.0239

EPHEMERIS_TYPE = 0
CLASSIFICATION_TYPE = U
NORAD_CAT_ID   = 13068
ELEMENT_SET_NO = 999
REV_AT_EPOCH   = 40666
BSTAR          = .17977055E-3
MEAN_MOTION_DOT = .4179E-4
MEAN_MOTION_DDOT = 0

CCSDS_OMM_VERS = 2.0
CREATION_DATE  = 
ORIGINATOR     = 

OBJECT_NAME    = SL-3 R/B
OBJECT_ID      = 1982-039B
CENTER_NAME    = EARTH
REF_FRAME      = TEME
TIME_SYSTEM    = UTC
MEAN_ELEMENT_THEORY = SGP/SGP4

EPOCH          = 2026-03-24T21:31:07.052160
MEAN_MOTION    = 15.10163492
ECCENTRICITY   = .00288861
INCLINATION    = 81.1573
RA_OF_ASC_NODE = 198.4281
ARG_OF_PERICENTER = 274.3455
MEAN_ANOMALY   = 85.4470

EPHEMERIS_TYPE = 0
CLASSIFICATION_TYPE = U
NORAD_CAT_ID   = 13154
ELEMENT_SET_NO = 999
REV_AT_EPOCH   = 38393
BSTAR          = .15724359E-3
MEAN_MOTION_DOT = .2613E-4
MEAN_MOTION_DDOT = 0

