ATLAS CENTAUR R/B       
1 06155U 72065B   26083.69305359  .00001280  00000+0  17734-3 0  9991
2 06155  35.0006 217.8242 0033048 137.1834 223.1448 14.77727215843488
SL-8 R/B                
1 08459U 75112B   26083.87563539  .00000244  00000+0  88917-4 0  9993
2 08459  74.0635 350.9794 0014495  77.8964 282.3813 14.38212413634058
SL-3 R/B                
1 10114U 77057B   26083.93224374  .00012091  00000+0  25025-3 0  9995
2 10114  97.5798 256.5305 0006568 220.2471 139.8292 15.45918773670684
SEASAT 1                
1 10967U 78064A   26083.92145474  .00000253  00000+0  10900-3 0  9995
2 10967 108.0082 157.4602 0002558 278.6224  81.4632 14.46172268508716
SL-14 R/B               
1 11267U 79011B   26083.93939019  .00000620  00000+0  58691-4 0  9997
2 11267  82.5206  82.0955 0016319  12.4610 347.7009 14.91926585531059
SL-8 R/B                
1 11574U 79089B   26083.93517138  .00000213  00000+0  72260-4 0  9993
2 11574  74.0678  62.8191 0016851 233.6311 126.3291 14.42358915438303
SL-14 R/B               
1 11672U 80005B   26083.82823298  .00000546  00000+0  52610-4 0  9993
2 11672  82.5117 292.8736 0017166 111.0324 249.2734 14.90946475478743
SL-8 R/B                
1 12139U 81003B   26083.96475892  .00019405  00000+0  48820-3 0  9990
2 12139  82.9353 275.8920 0261221 125.4395 237.1532 15.11623563316987
SL-3 R/B                
1 12465U 81046B   26083.96723591  .00010192  00000+0  23414-3 0  9997
2 12465  81.2287 271.3900 0018395 328.4732  31.5407 15.42361280440780
SL-3 R/B                
1 12904U 81103B   26083.89857733  .00004871  00000+0  21465-3 0  9998
2 12904  81.1607 195.5914 0012664 232.0394 127.9694 15.21554812975549
SL-3 R/B                
1 13068U 82013B   26083.90049149  .00004179  00000+0  17977-3 0  9991
2 13068  81.1741 142.9426 0023421 127.3132 233.0239 15.22153002406666
SL-3 R/B                
1 13154U 82039B   26083.89660940  .00002613  00000+0  15724-3 0  9990
2 13154  81.1573 198.4281 0028886 274.3455  85.4470 15.10163492383932
